YAOGAN-41               
1 58582U 23197A   26064.25108390 -.00000372  00000+0  00000+0 0  9997
2 58582   3.3211 311.6042 0010569 180.9644 244.0179  1.00274955  8288
OVZON-3                 
1 58698U 24003A   26063.67890635  .00000041  00000+0  00000+0 0  9999
2 58698   0.0144 156.6859 0000082   2.7103 307.1024  1.00271520  6405
INSAT-3DS               
1 58990U 24033A   26064.17161021 -.00000164  00000+0  00000+0 0  9990
2 58990   0.0539 262.9489 0002319  96.5331 307.2600  1.00270294 46027
MERAH PUTIH 2           
1 58995U 24035A   26064.15947421 -.00000367  00000+0  00000+0 0  9996
2 58995   0.0056 153.4814 0001077 209.0805 330.6852  1.00270715  7540
TJS-11                  
1 59020U 24037A   26064.03658294 -.00000378  00000+0  00000+0 0  9994
2 59020   4.3387 325.8073 0005840  42.4010 288.0696  1.00273988  7531
HULIANWAN GAOGUI-01 (H*)
1 59069U 24040A   26064.08655787  .00000147  00000+0  00000+0 0  9993
2 59069   0.0569 322.1927 0003874  40.0778 225.3791  1.00270785  6280
EUTELSAT 36D            
1 59346U 24059A   26063.79836745  .00000146  00000+0  00000+0 0  9992
2 59346   0.0059 149.0207 0000246 199.3380 137.4371  1.00271241  7103
PAKSAT-MM1              
1 59915U 24104A   26063.26989119  .00000142  00000+0  00000+0 0  9997
2 59915   0.0107 144.9852 0002664 192.0448 320.3420  1.00266246  6476
EKRAN 2 DEB             
1 59987U 77092N   26063.98847914 -.00000365  00000+0  00000+0 0  9993
2 59987   4.3942 275.3376 0011751 223.0135 133.2089  1.00191956 62068
ASTRA 1P (SES-24)       
1 60086U 24115A   26063.37128004  .00000108  00000+0  00000+0 0  9992
2 60086   0.0597 335.5167 0005274 347.3044 352.1506  1.00273834  6147
GOES 19                 
1 60133U 24119A   26064.28306403 -.00000257  00000+0  00000+0 0  9997
2 60133   0.0131 338.9704 0001059  46.7096 164.0397  1.00271818  5925
ZHONGXING-3A            
1 60179U 24122A   26064.03285625  .00000000  00000+0  00000+0 0  9991
2 60179   0.0165 129.0260 0002203 301.5676 205.5953  1.00268573  6267
TURKSAT 6A              
1 60233U 24127A   26064.19558707  .00000137  00000+0  00000+0 0  9999
2 60233   0.0588 236.3017 0002769  59.3335 339.7120  1.00274465  5976
HULIANWAN GAOGUI-02 (H*)
1 60327U 24135A   26063.89975271 -.00000183  00000+0  00000+0 0  9999
2 60327   0.0405  13.6941 0007732 328.3189 297.7242  1.00268382  6454
ZHONGXING-4A            
1 60606U 24151A   26064.25004389 -.00000372  00000+0  00000+0 0  9991
2 60606   1.5828 271.9229 0001560  91.3362   7.9077  1.00269179  5710
HULIANWAN GAOGUI-03 (H*)
1 61503U 24181A   26063.34558462 -.00000253  00000+0  00000+0 0  9994
2 61503   0.0376  26.6753 0000275 176.1017   6.5718  1.00275015  5776
DSN-3 (KIRAMEKI-3)      
1 61733U 24198A   26064.24905831 -.00000259  00000+0  00000+0 0  9999
2 61733   0.0150 220.3901 0001302 107.3970  68.8803  1.00269730  4878
