[{"OBJECT_NAME":"YAOGAN-41","OBJECT_ID":"2023-197A","EPOCH":"2026-03-05T06:01:33.648960","MEAN_MOTION":1.00274955,"ECCENTRICITY":0.00105698,"INCLINATION":3.3211,"RA_OF_ASC_NODE":311.6042,"ARG_OF_PERICENTER":180.9644,"MEAN_ANOMALY":244.0179,"EPHEMERIS_TYPE":0,"CLASSIFICATION_TYPE":"U","NORAD_CAT_ID":58582,"ELEMENT_SET_NO":999,"REV_AT_EPOCH":828,"BSTAR":0,"MEAN_MOTION_DOT":-3.72e-6,"MEAN_MOTION_DDOT":0},{"OBJECT_NAME":"OVZON-3","OBJECT_ID":"2024-003A","EPOCH":"2026-03-04T16:17:37.508640","MEAN_MOTION":1.0027152,"ECCENTRICITY":8.21e-6,"INCLINATION":0.0144,"RA_OF_ASC_NODE":156.6859,"ARG_OF_PERICENTER":2.7103,"MEAN_ANOMALY":307.1024,"EPHEMERIS_TYPE":0,"CLASSIFICATION_TYPE":"U","NORAD_CAT_ID":58698,"ELEMENT_SET_NO":999,"REV_AT_EPOCH":640,"BSTAR":0,"MEAN_MOTION_DOT":4.1e-7,"MEAN_MOTION_DDOT":0},{"OBJECT_NAME":"INSAT-3DS","OBJECT_ID":"2024-033A","EPOCH":"2026-03-05T04:07:07.122144","MEAN_MOTION":1.00270294,"ECCENTRICITY":0.00023196,"INCLINATION":0.0539,"RA_OF_ASC_NODE":262.9489,"ARG_OF_PERICENTER":96.5331,"MEAN_ANOMALY":307.26,"EPHEMERIS_TYPE":0,"CLASSIFICATION_TYPE":"U","NORAD_CAT_ID":58990,"ELEMENT_SET_NO":999,"REV_AT_EPOCH":4602,"BSTAR":0,"MEAN_MOTION_DOT":-1.64e-6,"MEAN_MOTION_DDOT":0},{"OBJECT_NAME":"MERAH PUTIH 2","OBJECT_ID":"2024-035A","EPOCH":"2026-03-05T03:49:38.571744","MEAN_MOTION":1.00270715,"ECCENTRICITY":0.00010773,"INCLINATION":0.0056,"RA_OF_ASC_NODE":153.4814,"ARG_OF_PERICENTER":209.0805,"MEAN_ANOMALY":330.6852,"EPHEMERIS_TYPE":0,"CLASSIFICATION_TYPE":"U","NORAD_CAT_ID":58995,"ELEMENT_SET_NO":999,"REV_AT_EPOCH":754,"BSTAR":0,"MEAN_MOTION_DOT":-3.67e-6,"MEAN_MOTION_DDOT":0},{"OBJECT_NAME":"TJS-11","OBJECT_ID":"2024-037A","EPOCH":"2026-03-05T00:52:40.766016","MEAN_MOTION":1.00273988,"ECCENTRICITY":0.000584,"INCLINATION":4.3387,"RA_OF_ASC_NODE":325.8073,"ARG_OF_PERICENTER":42.401,"MEAN_ANOMALY":288.0696,"EPHEMERIS_TYPE":0,"CLASSIFICATION_TYPE":"U","NORAD_CAT_ID":59020,"ELEMENT_SET_NO":999,"REV_AT_EPOCH":753,"BSTAR":0,"MEAN_MOTION_DOT":-3.78e-6,"MEAN_MOTION_DDOT":0},{"OBJECT_NAME":"HULIANWAN GAOGUI-01 (HG-01)","OBJECT_ID":"2024-040A","EPOCH":"2026-03-05T02:04:38.599968","MEAN_MOTION":1.00270785,"ECCENTRICITY":0.00038743,"INCLINATION":0.0569,"RA_OF_ASC_NODE":322.1927,"ARG_OF_PERICENTER":40.0778,"MEAN_ANOMALY":225.3791,"EPHEMERIS_TYPE":0,"CLASSIFICATION_TYPE":"U","NORAD_CAT_ID":59069,"ELEMENT_SET_NO":999,"REV_AT_EPOCH":628,"BSTAR":0,"MEAN_MOTION_DOT":1.47e-6,"MEAN_MOTION_DDOT":0},{"OBJECT_NAME":"EUTELSAT 36D","OBJECT_ID":"2024-059A","EPOCH":"2026-03-04T19:09:38.947680","MEAN_MOTION":1.00271241,"ECCENTRICITY":2.469e-5,"INCLINATION":0.0059,"RA_OF_ASC_NODE":149.0207,"ARG_OF_PERICENTER":199.338,"MEAN_ANOMALY":137.4371,"EPHEMERIS_TYPE":0,"CLASSIFICATION_TYPE":"U","NORAD_CAT_ID":59346,"ELEMENT_SET_NO":999,"REV_AT_EPOCH":710,"BSTAR":0,"MEAN_MOTION_DOT":1.46e-6,"MEAN_MOTION_DDOT":0},{"OBJECT_NAME":"PAKSAT-MM1","OBJECT_ID":"2024-104A","EPOCH":"2026-03-04T06:28:38.598816","MEAN_MOTION":1.00266246,"ECCENTRICITY":0.00026643,"INCLINATION":0.0107,"RA_OF_ASC_NODE":144.9852,"ARG_OF_PERICENTER":192.0448,"MEAN_ANOMALY":320.342,"EPHEMERIS_TYPE":0,"CLASSIFICATION_TYPE":"U","NORAD_CAT_ID":59915,"ELEMENT_SET_NO":999,"REV_AT_EPOCH":647,"BSTAR":0,"MEAN_MOTION_DOT":1.42e-6,"MEAN_MOTION_DDOT":0},{"OBJECT_NAME":"EKRAN 2 DEB","OBJECT_ID":"1977-092N","EPOCH":"2026-03-04T23:43:24.597696","MEAN_MOTION":1.00191956,"ECCENTRICITY":0.00117515,"INCLINATION":4.3942,"RA_OF_ASC_NODE":275.3376,"ARG_OF_PERICENTER":223.0135,"MEAN_ANOMALY":133.2089,"EPHEMERIS_TYPE":0,"CLASSIFICATION_TYPE":"U","NORAD_CAT_ID":59987,"ELEMENT_SET_NO":999,"REV_AT_EPOCH":6206,"BSTAR":0,"MEAN_MOTION_DOT":-3.65e-6,"MEAN_MOTION_DDOT":0},{"OBJECT_NAME":"ASTRA 1P (SES-24)","OBJECT_ID":"2024-115A","EPOCH":"2026-03-04T08:54:38.595456","MEAN_MOTION":1.00273834,"ECCENTRICITY":0.00052742,"INCLINATION":0.0597,"RA_OF_ASC_NODE":335.5167,"ARG_OF_PERICENTER":347.3044,"MEAN_ANOMALY":352.1506,"EPHEMERIS_TYPE":0,"CLASSIFICATION_TYPE":"U","NORAD_CAT_ID":60086,"ELEMENT_SET_NO":999,"REV_AT_EPOCH":614,"BSTAR":0,"MEAN_MOTION_DOT":1.08e-6,"MEAN_MOTION_DDOT":0},{"OBJECT_NAME":"GOES 19","OBJECT_ID":"2024-119A","EPOCH":"2026-03-05T06:47:36.732192","MEAN_MOTION":1.00271818,"ECCENTRICITY":0.00010599,"INCLINATION":0.0131,"RA_OF_ASC_NODE":338.9704,"ARG_OF_PERICENTER":46.7096,"MEAN_ANOMALY":164.0397,"EPHEMERIS_TYPE":0,"CLASSIFICATION_TYPE":"U","NORAD_CAT_ID":60133,"ELEMENT_SET_NO":999,"REV_AT_EPOCH":592,"BSTAR":0,"MEAN_MOTION_DOT":-2.57e-6,"MEAN_MOTION_DDOT":0},{"OBJECT_NAME":"ZHONGXING-3A","OBJECT_ID":"2024-122A","EPOCH":"2026-03-05T00:47:18.780000","MEAN_MOTION":1.00268573,"ECCENTRICITY":0.0002203,"INCLINATION":0.0165,"RA_OF_ASC_NODE":129.026,"ARG_OF_PERICENTER":301.5676,"MEAN_ANOMALY":205.5953,"EPHEMERIS_TYPE":0,"CLASSIFICATION_TYPE":"U","NORAD_CAT_ID":60179,"ELEMENT_SET_NO":999,"REV_AT_EPOCH":626,"BSTAR":0,"MEAN_MOTION_DOT":0,"MEAN_MOTION_DDOT":0},{"OBJECT_NAME":"TURKSAT 6A","OBJECT_ID":"2024-127A","EPOCH":"2026-03-05T04:41:38.722848","MEAN_MOTION":1.00274465,"ECCENTRICITY":0.00027698,"INCLINATION":0.0588,"RA_OF_ASC_NODE":236.3017,"ARG_OF_PERICENTER":59.3335,"MEAN_ANOMALY":339.712,"EPHEMERIS_TYPE":0,"CLASSIFICATION_TYPE":"U","NORAD_CAT_ID":60233,"ELEMENT_SET_NO":999,"REV_AT_EPOCH":597,"BSTAR":0,"MEAN_MOTION_DOT":1.37e-6,"MEAN_MOTION_DDOT":0},{"OBJECT_NAME":"HULIANWAN GAOGUI-02 (HG-02)","OBJECT_ID":"2024-135A","EPOCH":"2026-03-04T21:35:38.634144","MEAN_MOTION":1.00268382,"ECCENTRICITY":0.00077325,"INCLINATION":0.0405,"RA_OF_ASC_NODE":13.6941,"ARG_OF_PERICENTER":328.3189,"MEAN_ANOMALY":297.7242,"EPHEMERIS_TYPE":0,"CLASSIFICATION_TYPE":"U","NORAD_CAT_ID":60327,"ELEMENT_SET_NO":999,"REV_AT_EPOCH":645,"BSTAR":0,"MEAN_MOTION_DOT":-1.83e-6,"MEAN_MOTION_DDOT":0},{"OBJECT_NAME":"ZHONGXING-4A","OBJECT_ID":"2024-151A","EPOCH":"2026-03-05T06:00:03.792096","MEAN_MOTION":1.00269179,"ECCENTRICITY":0.00015607,"INCLINATION":1.5828,"RA_OF_ASC_NODE":271.9229,"ARG_OF_PERICENTER":91.3362,"MEAN_ANOMALY":7.9077,"EPHEMERIS_TYPE":0,"CLASSIFICATION_TYPE":"U","NORAD_CAT_ID":60606,"ELEMENT_SET_NO":999,"REV_AT_EPOCH":571,"BSTAR":0,"MEAN_MOTION_DOT":-3.72e-6,"MEAN_MOTION_DDOT":0},{"OBJECT_NAME":"HULIANWAN GAOGUI-03 (HG-03)","OBJECT_ID":"2024-181A","EPOCH":"2026-03-04T08:17:38.511168","MEAN_MOTION":1.00275015,"ECCENTRICITY":2.75e-5,"INCLINATION":0.0376,"RA_OF_ASC_NODE":26.6753,"ARG_OF_PERICENTER":176.1017,"MEAN_ANOMALY":6.5718,"EPHEMERIS_TYPE":0,"CLASSIFICATION_TYPE":"U","NORAD_CAT_ID":61503,"ELEMENT_SET_NO":999,"REV_AT_EPOCH":577,"BSTAR":0,"MEAN_MOTION_DOT":-2.53e-6,"MEAN_MOTION_DDOT":0},{"OBJECT_NAME":"DSN-3 (KIRAMEKI-3)","OBJECT_ID":"2024-198A","EPOCH":"2026-03-05T05:58:38.637984","MEAN_MOTION":1.0026973,"ECCENTRICITY":0.00013024,"INCLINATION":0.015,"RA_OF_ASC_NODE":220.3901,"ARG_OF_PERICENTER":107.397,"MEAN_ANOMALY":68.8803,"EPHEMERIS_TYPE":0,"CLASSIFICATION_TYPE":"U","NORAD_CAT_ID":61733,"ELEMENT_SET_NO":999,"REV_AT_EPOCH":487,"BSTAR":0,"MEAN_MOTION_DOT":-2.59e-6,"MEAN_MOTION_DDOT":0}]
